start=new Date('2023-04-04T00:00:00.000Z').valueOf();
sats=[{"CLASSIFICATION_TYPE":"U","PERIOD":"95.592","DECAY_DATE":null,"EPHEMERIS_TYPE":"0","MEAN_MOTION":"15.06400933","APOAPSIS":"548.029","RA_OF_ASC_NODE":"210.5351","OBJECT_ID":"2021-036R","MEAN_ELEMENT_THEORY":"SGP4","TLE_LINE1":"1 48291U 21036R   23093.46459384  .00018948  00000-0  12875-2 0  9991","OBJECT_NAME":"STARLINK-2555","MEAN_ANOMALY":"297.2630","LAUNCH_DATE":"2021-04-29","NORAD_CAT_ID":"48291","RCS_SIZE":"LARGE","MEAN_MOTION_DOT":"0.00018948","EPOCH":"2023-04-03T11:09:00.907776","ARG_OF_PERICENTER":"62.8479","FILE":"3879059","GP_ID":"229390616","CENTER_NAME":"EARTH","SEMIMAJOR_AXIS":"6925.346","TLE_LINE2":"2 48291  53.0549 210.5351 0001182  62.8479 297.2630 15.06400933106857","OBJECT_TYPE":"PAYLOAD","ELEMENT_SET_NO":"999","PERIAPSIS":"546.392","MEAN_MOTION_DDOT":"0.0000000000000","SITE":"AFETR","REF_FRAME":"TEME","COUNTRY_CODE":"US","TIME_SYSTEM":"UTC","BSTAR":"0.00128750000000","INCLINATION":"53.0549","REV_AT_EPOCH":"10685","ECCENTRICITY":"0.00011820"},{"TIME_SYSTEM":"UTC","BSTAR":"0.00226580000000","COUNTRY_CODE":"US","ECCENTRICITY":"0.00015340","INCLINATION":"53.0523","REV_AT_EPOCH":"10685","CENTER_NAME":"EARTH","TLE_LINE2":"2 48292  53.0523 210.6491 0001534  86.9146 273.2019 15.06366476106853","SEMIMAJOR_AXIS":"6925.451","OBJECT_TYPE":"PAYLOAD","MEAN_MOTION_DDOT":"0.0000000000000","SITE":"AFETR","REF_FRAME":"TEME","ELEMENT_SET_NO":"999","PERIAPSIS":"546.254","NORAD_CAT_ID":"48292","MEAN_MOTION_DOT":"0.00033598","EPOCH":"2023-04-03T11:24:54.712800","FILE":"3879059","ARG_OF_PERICENTER":"86.9146","GP_ID":"229389858","RCS_SIZE":"LARGE","DECAY_DATE":null,"EPHEMERIS_TYPE":"0","MEAN_MOTION":"15.06366476","APOAPSIS":"548.379","PERIOD":"95.594","CLASSIFICATION_TYPE":"U","TLE_LINE1":"1 48292U 21036S   23093.47563325  .00033598  00000-0  22658-2 0  9992","OBJECT_NAME":"STARLINK-2542","LAUNCH_DATE":"2021-04-29","MEAN_ANOMALY":"273.2019","RA_OF_ASC_NODE":"210.6491","OBJECT_ID":"2021-036S","MEAN_ELEMENT_THEORY":"SGP4"},{"BSTAR":"0.00271380000000","TIME_SYSTEM":"UTC","COUNTRY_CODE":"US","ECCENTRICITY":"0.00014240","REV_AT_EPOCH":"10741","INCLINATION":"53.0506","TLE_LINE2":"2 48293  53.0506 211.1631 0001424  83.7002 276.4149 15.06448825107412","OBJECT_TYPE":"PAYLOAD","SEMIMAJOR_AXIS":"6925.199","CENTER_NAME":"EARTH","REF_FRAME":"TEME","SITE":"AFETR","MEAN_MOTION_DDOT":"0.0000000000000","PERIAPSIS":"546.078","ELEMENT_SET_NO":"999","NORAD_CAT_ID":"48293","GP_ID":"229396133","FILE":"3879101","ARG_OF_PERICENTER":"83.7002","EPOCH":"2023-04-03T07:47:16.118304","MEAN_MOTION_DOT":"0.00040427","RCS_SIZE":"LARGE","APOAPSIS":"548.050","MEAN_MOTION":"15.06448825","EPHEMERIS_TYPE":"0","DECAY_DATE":null,"PERIOD":"95.589","CLASSIFICATION_TYPE":"U","MEAN_ANOMALY":"276.4149","LAUNCH_DATE":"2021-04-29","OBJECT_NAME":"STARLINK-2550","TLE_LINE1":"1 48293U 21036T   23093.32449211  .00040427  00000-0  27138-2 0  9991","MEAN_ELEMENT_THEORY":"SGP4","OBJECT_ID":"2021-036T","RA_OF_ASC_NODE":"211.1631"},{"BSTAR":"0.00232390000000","TIME_SYSTEM":"UTC","COUNTRY_CODE":"US","ECCENTRICITY":"0.00014860","REV_AT_EPOCH":"10683","INCLINATION":"53.0525","SEMIMAJOR_AXIS":"6925.277","TLE_LINE2":"2 48294  53.0525 211.1811 0001486  86.5804 273.5355 15.06423308106834","OBJECT_TYPE":"PAYLOAD","CENTER_NAME":"EARTH","REF_FRAME":"TEME","MEAN_MOTION_DDOT":"0.0000000000000","SITE":"AFETR","PERIAPSIS":"546.113","ELEMENT_SET_NO":"999","NORAD_CAT_ID":"48294","ARG_OF_PERICENTER":"86.5804","FILE":"3879059","GP_ID":"229390860","MEAN_MOTION_DOT":"0.00034525","EPOCH":"2023-04-03T07:41:59.591040","RCS_SIZE":"LARGE","MEAN_MOTION":"15.06423308","EPHEMERIS_TYPE":"0","APOAPSIS":"548.171","DECAY_DATE":null,"PERIOD":"95.591","CLASSIFICATION_TYPE":"U","LAUNCH_DATE":"2021-04-29","MEAN_ANOMALY":"273.5355","TLE_LINE1":"1 48294U 21036U   23093.32082860  .00034525  00000-0  23239-2 0  9995","OBJECT_NAME":"STARLINK-2533","MEAN_ELEMENT_THEORY":"SGP4","RA_OF_ASC_NODE":"211.1811","OBJECT_ID":"2021-036U"},{"NORAD_CAT_ID":"48295","EPOCH":"2023-04-03T17:09:55.471968","MEAN_MOTION_DOT":"0.00035768","GP_ID":"229423002","FILE":"3879321","ARG_OF_PERICENTER":"53.1918","RCS_SIZE":"LARGE","DECAY_DATE":null,"APOAPSIS":"548.032","EPHEMERIS_TYPE":"0","MEAN_MOTION":"15.06472231","CLASSIFICATION_TYPE":"U","PERIOD":"95.588","OBJECT_NAME":"STARLINK-2535","TLE_LINE1":"1 48295U 21036V   23093.71522537  .00035768  00000-0  24033-2 0  9992","LAUNCH_DATE":"2021-04-29","MEAN_ANOMALY":"306.9208","OBJECT_ID":"2021-036V","RA_OF_ASC_NODE":"209.4039","MEAN_ELEMENT_THEORY":"SGP4","TIME_SYSTEM":"UTC","BSTAR":"0.00240330000000","COUNTRY_CODE":"US","ECCENTRICITY":"0.00015010","INCLINATION":"53.0536","REV_AT_EPOCH":"10689","CENTER_NAME":"EARTH","OBJECT_TYPE":"PAYLOAD","TLE_LINE2":"2 48295  53.0536 209.4039 0001501  53.1918 306.9208 15.06472231106896","SEMIMAJOR_AXIS":"6925.127","SITE":"AFETR","MEAN_MOTION_DDOT":"0.0000000000000","REF_FRAME":"TEME","ELEMENT_SET_NO":"999","PERIAPSIS":"545.953"},{"CENTER_NAME":"EARTH","TLE_LINE2":"2 48296  53.0523 209.4259 0001362  75.8211 284.2930 15.06452131106896","SEMIMAJOR_AXIS":"6925.189","OBJECT_TYPE":"PAYLOAD","ELEMENT_SET_NO":"999","PERIAPSIS":"546.111","SITE":"AFETR","MEAN_MOTION_DDOT":"0.0000000000000","REF_FRAME":"TEME","COUNTRY_CODE":"US","TIME_SYSTEM":"UTC","BSTAR":"0.00225930000000","INCLINATION":"53.0523","REV_AT_EPOCH":"10689","ECCENTRICITY":"0.00013620","CLASSIFICATION_TYPE":"U","PERIOD":"95.589","DECAY_DATE":null,"APOAPSIS":"547.997","EPHEMERIS_TYPE":"0","MEAN_MOTION":"15.06452131","OBJECT_ID":"2021-036W","RA_OF_ASC_NODE":"209.4259","MEAN_ELEMENT_THEORY":"SGP4","OBJECT_NAME":"STARLINK-2546","TLE_LINE1":"1 48296U 21036W   23093.71152844  .00033579  00000-0  22593-2 0  9990","LAUNCH_DATE":"2021-04-29","MEAN_ANOMALY":"284.2930","NORAD_CAT_ID":"48296","RCS_SIZE":"LARGE","EPOCH":"2023-04-03T17:04:36.057216","MEAN_MOTION_DOT":"0.00033579","GP_ID":"229423747","ARG_OF_PERICENTER":"75.8211","FILE":"3879321"},{"CLASSIFICATION_TYPE":"U","PERIOD":"95.590","APOAPSIS":"547.983","MEAN_MOTION":"15.06439222","EPHEMERIS_TYPE":"0","DECAY_DATE":null,"MEAN_ELEMENT_THEORY":"SGP4","OBJECT_ID":"2021-036X","RA_OF_ASC_NODE":"210.3361","MEAN_ANOMALY":"274.3631","LAUNCH_DATE":"2021-04-29","OBJECT_NAME":"STARLINK-2544","TLE_LINE1":"1 48297U 21036X   23093.50880442  .00032476  00000-0  21868-2 0  9999","NORAD_CAT_ID":"48297","RCS_SIZE":"LARGE","GP_ID":"229363529","ARG_OF_PERICENTER":"85.7504","FILE":"3878789","EPOCH":"2023-04-03T12:12:40.701888","MEAN_MOTION_DOT":"0.00032476","TLE_LINE2":"2 48297  53.0519 210.3361 0001284  85.7504 274.3631 15.06439222107441","OBJECT_TYPE":"PAYLOAD","SEMIMAJOR_AXIS":"6925.228","CENTER_NAME":"EARTH","PERIAPSIS":"546.204","ELEMENT_SET_NO":"999","REF_FRAME":"TEME","SITE":"AFETR","MEAN_MOTION_DDOT":"0.0000000000000","COUNTRY_CODE":"US","BSTAR":"0.00218680000000","TIME_SYSTEM":"UTC","REV_AT_EPOCH":"10744","INCLINATION":"53.0519","ECCENTRICITY":"0.00012840"},{"ECCENTRICITY":"0.00013280","REV_AT_EPOCH":"10687","INCLINATION":"53.0520","BSTAR":"0.00261890000000","TIME_SYSTEM":"UTC","COUNTRY_CODE":"US","REF_FRAME":"TEME","MEAN_MOTION_DDOT":"0.0000000000000","SITE":"AFETR","PERIAPSIS":"546.137","ELEMENT_SET_NO":"999","TLE_LINE2":"2 48298  53.0520 210.0553 0001328  90.3381 269.7760 15.06451232106870","OBJECT_TYPE":"PAYLOAD","SEMIMAJOR_AXIS":"6925.192","CENTER_NAME":"EARTH","FILE":"3879059","ARG_OF_PERICENTER":"90.3381","GP_ID":"229390373","MEAN_MOTION_DOT":"0.00038998","EPOCH":"2023-04-03T13:42:54.641664","RCS_SIZE":"LARGE","NORAD_CAT_ID":"48298","MEAN_ANOMALY":"269.7760","LAUNCH_DATE":"2021-04-29","TLE_LINE1":"1 48298U 21036Y   23093.57146576  .00038998  00000-0  26189-2 0  9996","OBJECT_NAME":"STARLINK-2559","MEAN_ELEMENT_THEORY":"SGP4","RA_OF_ASC_NODE":"210.0553","OBJECT_ID":"2021-036Y","EPHEMERIS_TYPE":"0","MEAN_MOTION":"15.06451232","APOAPSIS":"547.976","DECAY_DATE":null,"PERIOD":"95.589","CLASSIFICATION_TYPE":"U"},{"COUNTRY_CODE":"US","BSTAR":"0.00220640000000","TIME_SYSTEM":"UTC","REV_AT_EPOCH":"10689","INCLINATION":"53.0531","ECCENTRICITY":"0.00013420","TLE_LINE2":"2 48299  53.0531 209.4751 0001342  85.3328 274.7815 15.06453784106899","OBJECT_TYPE":"PAYLOAD","SEMIMAJOR_AXIS":"6925.184","CENTER_NAME":"EARTH","PERIAPSIS":"546.119","ELEMENT_SET_NO":"999","REF_FRAME":"TEME","SITE":"AFETR","MEAN_MOTION_DDOT":"0.0000000000000","NORAD_CAT_ID":"48299","RCS_SIZE":"LARGE","GP_ID":"229423503","ARG_OF_PERICENTER":"85.3328","FILE":"3879321","EPOCH":"2023-04-03T16:48:41.242176","MEAN_MOTION_DOT":"0.00032784","PERIOD":"95.589","CLASSIFICATION_TYPE":"U","APOAPSIS":"547.978","EPHEMERIS_TYPE":"0","MEAN_MOTION":"15.06453784","DECAY_DATE":null,"MEAN_ELEMENT_THEORY":"SGP4","OBJECT_ID":"2021-036Z","RA_OF_ASC_NODE":"209.4751","MEAN_ANOMALY":"274.7815","LAUNCH_DATE":"2021-04-29","OBJECT_NAME":"STARLINK-2557","TLE_LINE1":"1 48299U 21036Z   23093.70047734  .00032784  00000-0  22064-2 0  9993"},{"INCLINATION":"53.0542","REV_AT_EPOCH":"10676","ECCENTRICITY":"0.00013800","COUNTRY_CODE":"US","TIME_SYSTEM":"UTC","BSTAR":"0.00206810000000","ELEMENT_SET_NO":"999","PERIAPSIS":"546.103","SITE":"AFETR","MEAN_MOTION_DDOT":"0.0000000000000","REF_FRAME":"TEME","CENTER_NAME":"EARTH","SEMIMAJOR_AXIS":"6925.194","TLE_LINE2":"2 48300  53.0542 219.2128 0001380  54.8372 305.2746 15.06450462106762","OBJECT_TYPE":"PAYLOAD","RCS_SIZE":"LARGE","EPOCH":"2023-04-03T18:12:15.613920","MEAN_MOTION_DOT":"0.00030700","GP_ID":"229423247","ARG_OF_PERICENTER":"54.8372","FILE":"3879321","NORAD_CAT_ID":"48300","OBJECT_ID":"2021-036AA","RA_OF_ASC_NODE":"219.2128","MEAN_ELEMENT_THEORY":"SGP4","OBJECT_NAME":"STARLINK-2538","TLE_LINE1":"1 48300U 21036AA  23093.75851405  .00030700  00000-0  20681-2 0  9998","LAUNCH_DATE":"2021-04-29","MEAN_ANOMALY":"305.2746","CLASSIFICATION_TYPE":"U","PERIOD":"95.589","DECAY_DATE":null,"APOAPSIS":"548.015","EPHEMERIS_TYPE":"0","MEAN_MOTION":"15.06450462"}];
